OPS 7218 (TRANSIT 16)   
1 02807U 67048A   26065.25560406  .00000173  00000+0  25264-3 0  9991
2 02807  89.6811 351.2780 0018433 232.1285 280.9072 13.50743292894038
OPS 4947 (TRANSIT 17)   
1 02965U 67092A   26065.29628981  .00000187  00000+0  25971-3 0  9992
2 02965  89.2561  18.0707 0047723 355.8597 160.3791 13.53477011882279
OPS 7034 (TRANSIT 18)   
1 03133U 68012A   26065.07699914  .00000132  00000+0  18687-3 0  9999
2 03133  90.0214 273.8617 0072130 289.7246 182.0165 13.51588356580442
NNSS 19 (TRANSIT 19)    
1 04507U 70067A   26065.22384384  .00000150  00000+0  19591-3 0  9992
2 04507  90.0052 234.5788 0173132  51.5100 310.1437 13.51337502733495
NNSS 20 (TRANSIT 20)    
1 06909U 73081A   26065.22468428  .00000250  00000+0  24421-3 0  9990
2 06909  89.8513 253.7837 0154361 187.1992 172.6956 13.71473683815050
TRANSAT                 
1 10457U 77106A   26065.08600713  .00000076  00000+0  10498-3 0  9999
2 10457  89.6397  75.6059 0024116 316.5886 108.4922 13.48957420378674
NOVA 1                  
1 12458U 81044A   26064.97891447  .00000031  00000+0  51078-4 0  9992
2 12458  89.8425  90.1722 0012754 229.7271 175.9943 13.23287058162879
NOVA 3                  
1 15362U 84110A   26065.31573113  .00000093  00000+0  20074-3 0  9991
2 15362  90.1128  81.4792 0033434  98.6232 273.4651 13.23056462998048
OSCAR 30                
1 15935U 85066A   26065.17415224  .00000079  00000+0  12809-3 0  9991
2 15935  90.1550 101.1791 0166957 207.7155 241.3042 13.36094325975672
OSCAR 24                
1 15936U 85066B   26065.16336632  .00000088  00000+0  14477-3 0  9999
2 15936  90.1687  93.7445 0167779 214.3118 215.4800 13.35952170977577
POLAR BEAR              
1 17070U 86088A   26065.27668504  .00000143  00000+0  13715-3 0  9999
2 17070  89.6252 180.4528 0038009 226.3145 151.6243 13.75269487971270
OSCAR 27                
1 18361U 87080A   26065.09427930  .00000101  00000+0  15410-3 0  9990
2 18361  90.3647  82.3498 0103298 346.9697  12.8784 13.44923876886774
OSCAR 29                
1 18362U 87080B   26065.04889821  .00000095  00000+0  14391-3 0  9996
2 18362  90.3656  82.8137 0105686  10.3555   4.6076 13.44464040886291
OSCAR 23                
1 19070U 88033A   26064.94557304  .00000106  00000+0  20045-3 0  9994
2 19070  90.3289  18.9849 0188057 309.4652 116.8991 13.27803003833575
OSCAR 32                
1 19071U 88033B   26065.30780674  .00000075  00000+0  13958-3 0  9994
2 19071  90.3293  19.1328 0186168 295.1446 221.9056 13.27967816833741
NOVA 2                  
1 19223U 88052A   26065.32584118  .00000059  00000+0  11900-3 0  9998
2 19223  89.9783  78.1293 0031605 140.5117 231.7267 13.22947320820536
OSCAR 25                
1 19419U 88074A   26065.30963762  .00000144  00000+0  23271-3 0  9992
2 19419  90.0416  20.5274 0096648   9.0954 157.9419 13.42641124837615
