[{"OBJECT_NAME":"OPS 7218 (TRANSIT 16)","OBJECT_ID":"1967-048A","EPOCH":"2026-03-06T06:08:04.190784","MEAN_MOTION":13.50743292,"ECCENTRICITY":0.00184338,"INCLINATION":89.6811,"RA_OF_ASC_NODE":351.278,"ARG_OF_PERICENTER":232.1285,"MEAN_ANOMALY":280.9072,"EPHEMERIS_TYPE":0,"CLASSIFICATION_TYPE":"U","NORAD_CAT_ID":2807,"ELEMENT_SET_NO":999,"REV_AT_EPOCH":89403,"BSTAR":0.00025263545,"MEAN_MOTION_DOT":1.73e-6,"MEAN_MOTION_DDOT":0},{"OBJECT_NAME":"OPS 4947 (TRANSIT 17)","OBJECT_ID":"1967-092A","EPOCH":"2026-03-06T07:06:39.439584","MEAN_MOTION":13.53477011,"ECCENTRICITY":0.0047723,"INCLINATION":89.2561,"RA_OF_ASC_NODE":18.0707,"ARG_OF_PERICENTER":355.8597,"MEAN_ANOMALY":160.3791,"EPHEMERIS_TYPE":0,"CLASSIFICATION_TYPE":"U","NORAD_CAT_ID":2965,"ELEMENT_SET_NO":999,"REV_AT_EPOCH":88227,"BSTAR":0.00025970823,"MEAN_MOTION_DOT":1.87e-6,"MEAN_MOTION_DDOT":0},{"OBJECT_NAME":"OPS 7034 (TRANSIT 18)","OBJECT_ID":"1968-012A","EPOCH":"2026-03-06T01:50:52.725696","MEAN_MOTION":13.51588356,"ECCENTRICITY":0.00721302,"INCLINATION":90.0214,"RA_OF_ASC_NODE":273.8617,"ARG_OF_PERICENTER":289.7246,"MEAN_ANOMALY":182.0165,"EPHEMERIS_TYPE":0,"CLASSIFICATION_TYPE":"U","NORAD_CAT_ID":3133,"ELEMENT_SET_NO":999,"REV_AT_EPOCH":58044,"BSTAR":0.00018686589,"MEAN_MOTION_DOT":1.32e-6,"MEAN_MOTION_DDOT":0},{"OBJECT_NAME":"NNSS 19 (TRANSIT 19)","OBJECT_ID":"1970-067A","EPOCH":"2026-03-06T05:22:20.107776","MEAN_MOTION":13.51337502,"ECCENTRICITY":0.01731323,"INCLINATION":90.0052,"RA_OF_ASC_NODE":234.5788,"ARG_OF_PERICENTER":51.51,"MEAN_ANOMALY":310.1437,"EPHEMERIS_TYPE":0,"CLASSIFICATION_TYPE":"U","NORAD_CAT_ID":4507,"ELEMENT_SET_NO":999,"REV_AT_EPOCH":73349,"BSTAR":0.00019590543,"MEAN_MOTION_DOT":1.5e-6,"MEAN_MOTION_DDOT":0},{"OBJECT_NAME":"NNSS 20 (TRANSIT 20)","OBJECT_ID":"1973-081A","EPOCH":"2026-03-06T05:23:32.721792","MEAN_MOTION":13.71473683,"ECCENTRICITY":0.01543613,"INCLINATION":89.8513,"RA_OF_ASC_NODE":253.7837,"ARG_OF_PERICENTER":187.1992,"MEAN_ANOMALY":172.6956,"EPHEMERIS_TYPE":0,"CLASSIFICATION_TYPE":"U","NORAD_CAT_ID":6909,"ELEMENT_SET_NO":999,"REV_AT_EPOCH":81505,"BSTAR":0.00024421192,"MEAN_MOTION_DOT":2.5e-6,"MEAN_MOTION_DDOT":0},{"OBJECT_NAME":"TRANSAT","OBJECT_ID":"1977-106A","EPOCH":"2026-03-06T02:03:51.016032","MEAN_MOTION":13.4895742,"ECCENTRICITY":0.00241165,"INCLINATION":89.6397,"RA_OF_ASC_NODE":75.6059,"ARG_OF_PERICENTER":316.5886,"MEAN_ANOMALY":108.4922,"EPHEMERIS_TYPE":0,"CLASSIFICATION_TYPE":"U","NORAD_CAT_ID":10457,"ELEMENT_SET_NO":999,"REV_AT_EPOCH":37867,"BSTAR":0.00010498012,"MEAN_MOTION_DOT":7.6e-7,"MEAN_MOTION_DDOT":0},{"OBJECT_NAME":"NOVA 1","OBJECT_ID":"1981-044A","EPOCH":"2026-03-05T23:29:38.210208","MEAN_MOTION":13.23287058,"ECCENTRICITY":0.00127544,"INCLINATION":89.8425,"RA_OF_ASC_NODE":90.1722,"ARG_OF_PERICENTER":229.7271,"MEAN_ANOMALY":175.9943,"EPHEMERIS_TYPE":0,"CLASSIFICATION_TYPE":"U","NORAD_CAT_ID":12458,"ELEMENT_SET_NO":999,"REV_AT_EPOCH":16287,"BSTAR":5.1077644e-5,"MEAN_MOTION_DOT":3.1e-7,"MEAN_MOTION_DDOT":0},{"OBJECT_NAME":"NOVA 3","OBJECT_ID":"1984-110A","EPOCH":"2026-03-06T07:34:39.169632","MEAN_MOTION":13.23056462,"ECCENTRICITY":0.00334347,"INCLINATION":90.1128,"RA_OF_ASC_NODE":81.4792,"ARG_OF_PERICENTER":98.6232,"MEAN_ANOMALY":273.4651,"EPHEMERIS_TYPE":0,"CLASSIFICATION_TYPE":"U","NORAD_CAT_ID":15362,"ELEMENT_SET_NO":999,"REV_AT_EPOCH":99804,"BSTAR":0.00020074403,"MEAN_MOTION_DOT":9.3e-7,"MEAN_MOTION_DDOT":0},{"OBJECT_NAME":"OSCAR 30","OBJECT_ID":"1985-066A","EPOCH":"2026-03-06T04:10:46.753536","MEAN_MOTION":13.36094325,"ECCENTRICITY":0.01669577,"INCLINATION":90.155,"RA_OF_ASC_NODE":101.1791,"ARG_OF_PERICENTER":207.7155,"MEAN_ANOMALY":241.3042,"EPHEMERIS_TYPE":0,"CLASSIFICATION_TYPE":"U","NORAD_CAT_ID":15935,"ELEMENT_SET_NO":999,"REV_AT_EPOCH":97567,"BSTAR":0.00012809417,"MEAN_MOTION_DOT":7.9e-7,"MEAN_MOTION_DDOT":0},{"OBJECT_NAME":"OSCAR 24","OBJECT_ID":"1985-066B","EPOCH":"2026-03-06T03:55:14.850048","MEAN_MOTION":13.3595217,"ECCENTRICITY":0.01677799,"INCLINATION":90.1687,"RA_OF_ASC_NODE":93.7445,"ARG_OF_PERICENTER":214.3118,"MEAN_ANOMALY":215.48,"EPHEMERIS_TYPE":0,"CLASSIFICATION_TYPE":"U","NORAD_CAT_ID":15936,"ELEMENT_SET_NO":999,"REV_AT_EPOCH":97757,"BSTAR":0.00014476566,"MEAN_MOTION_DOT":8.8e-7,"MEAN_MOTION_DDOT":0},{"OBJECT_NAME":"POLAR BEAR","OBJECT_ID":"1986-088A","EPOCH":"2026-03-06T06:38:25.587456","MEAN_MOTION":13.75269487,"ECCENTRICITY":0.00380096,"INCLINATION":89.6252,"RA_OF_ASC_NODE":180.4528,"ARG_OF_PERICENTER":226.3145,"MEAN_ANOMALY":151.6243,"EPHEMERIS_TYPE":0,"CLASSIFICATION_TYPE":"U","NORAD_CAT_ID":17070,"ELEMENT_SET_NO":999,"REV_AT_EPOCH":97127,"BSTAR":0.00013715209,"MEAN_MOTION_DOT":1.43e-6,"MEAN_MOTION_DDOT":0},{"OBJECT_NAME":"OSCAR 27","OBJECT_ID":"1987-080A","EPOCH":"2026-03-06T02:15:45.731520","MEAN_MOTION":13.44923876,"ECCENTRICITY":0.01032981,"INCLINATION":90.3647,"RA_OF_ASC_NODE":82.3498,"ARG_OF_PERICENTER":346.9697,"MEAN_ANOMALY":12.8784,"EPHEMERIS_TYPE":0,"CLASSIFICATION_TYPE":"U","NORAD_CAT_ID":18361,"ELEMENT_SET_NO":999,"REV_AT_EPOCH":88677,"BSTAR":0.00015409956,"MEAN_MOTION_DOT":1.01e-6,"MEAN_MOTION_DDOT":0},{"OBJECT_NAME":"OSCAR 29","OBJECT_ID":"1987-080B","EPOCH":"2026-03-06T01:10:24.805344","MEAN_MOTION":13.4446404,"ECCENTRICITY":0.01056866,"INCLINATION":90.3656,"RA_OF_ASC_NODE":82.8137,"ARG_OF_PERICENTER":10.3555,"MEAN_ANOMALY":4.6076,"EPHEMERIS_TYPE":0,"CLASSIFICATION_TYPE":"U","NORAD_CAT_ID":18362,"ELEMENT_SET_NO":999,"REV_AT_EPOCH":88629,"BSTAR":0.00014390931,"MEAN_MOTION_DOT":9.5e-7,"MEAN_MOTION_DDOT":0},{"OBJECT_NAME":"OSCAR 23","OBJECT_ID":"1988-033A","EPOCH":"2026-03-05T22:41:37.510656","MEAN_MOTION":13.27803003,"ECCENTRICITY":0.01880571,"INCLINATION":90.3289,"RA_OF_ASC_NODE":18.9849,"ARG_OF_PERICENTER":309.4652,"MEAN_ANOMALY":116.8991,"EPHEMERIS_TYPE":0,"CLASSIFICATION_TYPE":"U","NORAD_CAT_ID":19070,"ELEMENT_SET_NO":999,"REV_AT_EPOCH":83357,"BSTAR":0.00020045021,"MEAN_MOTION_DOT":1.06e-6,"MEAN_MOTION_DDOT":0},{"OBJECT_NAME":"OSCAR 32","OBJECT_ID":"1988-033B","EPOCH":"2026-03-06T07:23:14.502336","MEAN_MOTION":13.27967816,"ECCENTRICITY":0.01861688,"INCLINATION":90.3293,"RA_OF_ASC_NODE":19.1328,"ARG_OF_PERICENTER":295.1446,"MEAN_ANOMALY":221.9056,"EPHEMERIS_TYPE":0,"CLASSIFICATION_TYPE":"U","NORAD_CAT_ID":19071,"ELEMENT_SET_NO":999,"REV_AT_EPOCH":83374,"BSTAR":0.00013958099,"MEAN_MOTION_DOT":7.5e-7,"MEAN_MOTION_DDOT":0},{"OBJECT_NAME":"NOVA 2","OBJECT_ID":"1988-052A","EPOCH":"2026-03-06T07:49:12.677952","MEAN_MOTION":13.2294732,"ECCENTRICITY":0.00316054,"INCLINATION":89.9783,"RA_OF_ASC_NODE":78.1293,"ARG_OF_PERICENTER":140.5117,"MEAN_ANOMALY":231.7267,"EPHEMERIS_TYPE":0,"CLASSIFICATION_TYPE":"U","NORAD_CAT_ID":19223,"ELEMENT_SET_NO":999,"REV_AT_EPOCH":82053,"BSTAR":0.00011899633,"MEAN_MOTION_DOT":5.9e-7,"MEAN_MOTION_DDOT":0},{"OBJECT_NAME":"OSCAR 25","OBJECT_ID":"1988-074A","EPOCH":"2026-03-06T07:25:52.690368","MEAN_MOTION":13.42641124,"ECCENTRICITY":0.00966483,"INCLINATION":90.0416,"RA_OF_ASC_NODE":20.5274,"ARG_OF_PERICENTER":9.0954,"MEAN_ANOMALY":157.9419,"EPHEMERIS_TYPE":0,"CLASSIFICATION_TYPE":"U","NORAD_CAT_ID":19419,"ELEMENT_SET_NO":999,"REV_AT_EPOCH":83761,"BSTAR":0.00023270713,"MEAN_MOTION_DOT":1.44e-6,"MEAN_MOTION_DDOT":0}]
